{
  "norad_id": 52367,
  "name": "STARLINK-3817",
  "history": [
    {
      "epoch": "2026-03-28T11:04:37.698816Z",
      "apogee_km": 540.6909663755778,
      "perigee_km": 538.6687501515707,
      "latitude_deg": -1.1048839069408304e-05,
      "longitude_deg": 112.8116557133791,
      "height_km": 540.278305230611,
      "semi_major_axis_km": 6917.816858263574,
      "eccentricity": 0.00014616,
      "inclination_deg": 53.2156,
      "raan_deg": 104.8504,
      "arg_perigee_deg": 72.9163,
      "mean_anomaly_deg": 287.1989,
      "mean_motion_rev_day": 15.08860785
    },
    {
      "epoch": "2026-03-29T04:33:50.821056Z",
      "apogee_km": 540.6553158450797,
      "perigee_km": 538.6214898766393,
      "latitude_deg": -4.900717952927983e-05,
      "longitude_deg": -153.48231330814707,
      "height_km": 540.2459658941618,
      "semi_major_axis_km": 6917.77540286086,
      "eccentricity": 0.000147,
      "inclination_deg": 53.2159,
      "raan_deg": 101.5793,
      "arg_perigee_deg": 73.5516,
      "mean_anomaly_deg": 286.5637,
      "mean_motion_rev_day": 15.08874348
    },
    {
      "epoch": "2026-03-30T04:24:38.039040Z",
      "apogee_km": 540.7973090082878,
      "perigee_km": 538.7094896857661,
      "latitude_deg": 2.2641404928732427e-05,
      "longitude_deg": -156.61723988907417,
      "height_km": 540.5864389565635,
      "semi_major_axis_km": 6917.890399347027,
      "eccentricity": 0.0001509,
      "inclination_deg": 53.2171,
      "raan_deg": 97.1204,
      "arg_perigee_deg": 86.5716,
      "mean_anomaly_deg": 273.5449,
      "mean_motion_rev_day": 15.08836725
    }
  ]
}